BEIDOU-2 IGSO-1 (C06)   
1 36828U 10036A   23114.79217230 -.00000101  00000+0  00000+0 0  9990
2 36828  54.2076 173.3873 0035551 191.1534 240.7537  1.00261023 46708
BEIDOU-2 G4 (C04)       
1 37210U 10057A   23115.56274428 -.00000115  00000+0  00000+0 0  9992
2 37210   0.9096  51.5242 0000527 154.4775   9.8772  1.00272141 45768
BEIDOU-2 IGSO-2 (C07)   
1 37256U 10068A   23115.40887927 -.00000196  00000+0  00000+0 0  9990
2 37256  49.6482 285.8953 0024390 200.3595 342.6696  1.00268711 45270
BEIDOU-2 IGSO-3 (C08)   
1 37384U 11013A   23115.31042346 -.00000190  00000+0  00000+0 0  9995
2 37384  60.7500  51.1831 0022371 186.2213 194.6899  1.00272418 44157
BEIDOU-2 IGSO-4 (C09)   
1 37763U 11038A   23114.11113199 -.00000062  00000+0  00000+0 0  9993
2 37763  54.4848 175.9129 0108430 228.8183 300.7665  1.00259381 43118
BEIDOU-2 IGSO-5 (C10)   
1 37948U 11073A   23115.28906236 -.00000145  00000+0  00000+0 0  9990
2 37948  49.7711 285.5531 0086207 218.6171 268.1388  1.00262622 41888
BEIDOU-2 G5 (C05)       
1 38091U 12008A   23115.54252206  .00000054  00000+0  00000+0 0  9997
2 38091   1.4120  65.0736 0005950 266.5261 135.7926  1.00271986 40961
BEIDOU-2 M3 (C11)       
1 38250U 12018A   23115.37384171 -.00000101  00000+0  00000+0 0  9997
2 38250  56.5765 343.2434 0021032 262.5925 276.0170  1.86231232 74895
BEIDOU-2 M4 (C12)       
1 38251U 12018B   23113.96804880 -.00000103  00000+0  00000+0 0  9997
2 38251  56.4907 342.5932 0012085 268.1368  93.1115  1.86234288 74878
BEIDOU-2 M6 (C14)       
1 38775U 12050B   23115.58070766  .00000017  00000+0  00000+0 0  9995
2 38775  55.6004 101.1873 0014963 323.6896 233.5797  1.86231207 72277
BEIDOU-2 G6 (C02)       
1 38953U 12059A   23115.54757762 -.00000178  00000+0  00000+0 0  9995
2 38953   1.7022  82.3816 0011201 308.3012 103.8124  1.00273755 38394
BEIDOU-3S IGSO-1S (C31) 
1 40549U 15019A   23112.35059609 -.00000180  00000+0  00000+0 0  9992
2 40549  51.3437 309.1473 0036454 191.2943 291.6946  1.00286999 29535
BEIDOU-3S M2S (C57)     
1 40748U 15037A   23115.45613245 -.00000099  00000+0  00000+0 0  9998
2 40748  55.7332 341.2194 0005544  26.8494 161.0802  1.86233344 52723
BEIDOU-3S M1S (C58)     
1 40749U 15037B   23115.07351829 -.00000101  00000+0  00000+0 0  9998
2 40749  55.7376 341.2234 0005816 351.0461  74.2929  1.86233004 52713
BEIDOU-3S IGSO-2S (C56) 
1 40938U 15053A   23115.39007900 -.00000133  00000+0  00000+0 0  9994
2 40938  51.0159 272.2685 0046179 192.2078 345.2220  1.00267705 27831
BEIDOU-2 IGSO-6 (C13)   
1 41434U 16021A   23115.29626144 -.00000162  00000+0  00000+0 0  9990
2 41434  58.5617  49.6172 0047096 226.2466 139.0150  1.00264942 25962
BEIDOU-2 G7 (C03)       
1 41586U 16037A   23115.60813111 -.00000357  00000+0  00000+0 0  9998
2 41586   1.5715  65.7484 0009151 347.9572 129.1057  1.00275566 25275
BEIDOU-3 M1 (C19)       
1 43001U 17069A   23114.25396800  .00000005  00000+0  00000+0 0  9998
2 43001  55.7510 101.2733 0012653 294.3690 249.8976  1.86231571 37188
BEIDOU-3 M2 (C20)       
1 43002U 17069B   23113.58338339  .00000001  00000+0  00000+0 0  9993
2 43002  55.7507 101.3317 0010380 311.3379 186.0013  1.86231208 37162
BEIDOU-3 M7 (C27)       
1 43107U 18003A   23115.54980008 -.00000101  00000+0  00000+0 0  9994
2 43107  55.1883 341.9955 0005554  53.9119 128.5126  1.86232419 35964
BEIDOU-3 M8 (C28)       
1 43108U 18003B   23115.49545916 -.00000101  00000+0  00000+0 0  9994
2 43108  55.1828 341.9858 0002383 279.9211 268.2177  1.86230894 35969
BEIDOU-3 M4 (C22)       
1 43207U 18018A   23115.12078896  .00000013  00000+0  00000+0 0  9999
2 43207  55.7107 101.3479 0007242 327.2027  32.7372  1.86231472 35349
BEIDOU-3 M3 (C21)       
1 43208U 18018B   23114.65040846  .00000008  00000+0  00000+0 0  9995
2 43208  55.7096 101.3667 0010410 302.4735  57.4104  1.86231523 35331
BEIDOU-3 M9 (C29)       
1 43245U 18029A   23115.15049373 -.00000100  00000+0  00000+0 0  9992
2 43245  55.0890 339.7547 0001229  11.2728 174.1126  1.86232586 34493
BEIDOU-3 M10 (C30)      
1 43246U 18029B   23114.48549315 -.00000102  00000+0  10000-3 0  9996
2 43246  55.0857 339.8053 0004969  11.6538 134.6504  1.86232581 34471
BEIDOU-2 IGSO-7 (C16)   
1 43539U 18057A   23114.58052765 -.00000106  00000+0  00000+0 0  9990
2 43539  55.1005 172.9966 0059947 230.1409 130.7749  1.00271470 17635
BEIDOU-3 M5 (C23)       
1 43581U 18062A   23115.56474907 -.00000016  00000+0  00000+0 0  9998
2 43581  54.1999 221.4097 0002305 280.4320  81.3649  1.86231920 32248
BEIDOU-3 M6 (C24)       
1 43582U 18062B   23115.43112545 -.00000015  00000+0  00000+0 0  9991
2 43582  54.1996 221.4037 0004907  22.1224 341.1334  1.86229469 32247
BEIDOU-3 M12 (C26)      
1 43602U 18067A   23115.38414211 -.00000014  00000+0  00000+0 0  9997
2 43602  54.2858 220.0485 0007116  20.8335 352.6907  1.86231707 31737
BEIDOU-3 M11 (C25)      
1 43603U 18067B   23115.50954396 -.00000016  00000+0  00000+0 0  9997
2 43603  54.2829 220.0102 0004035  12.9103 354.9877  1.86231582 31758
BEIDOU-3 M13 (C32)      
1 43622U 18072A   23114.47862625  .00000006  00000+0  00000+0 0  9990
2 43622  55.6794 100.9132 0009137 291.1611 133.7167  1.86231499 31243
BEIDOU-3 M14 (C33)      
1 43623U 18072B   23114.36169354  .00000005  00000+0  00000+0 0  9997
2 43623  55.6810 100.9097 0006814 308.7510 127.9677  1.86231491 31248
BEIDOU-3 M16 (C35)      
1 43647U 18078A   23115.28423981 -.00000099  00000+0  10000-3 0  9999
2 43647  54.9848 339.8836 0008447  13.0801 215.5117  1.86227277 30760
BEIDOU-3 M15 (C34)      
1 43648U 18078B   23115.34215993 -.00000099  00000+0  00000+0 0  9994
2 43648  54.9801 339.8857 0005435  24.0762 153.4127  1.86232178 30784
BEIDOU-3 G1 (C59)       
1 43683U 18085A   23115.55873471 -.00000280  00000+0  00000+0 0  9997
2 43683   1.2425 134.7357 0004181 307.8936 111.9253  1.00270142 16545
BEIDOU-3 M17 (C36)      
1 43706U 18093A   23114.68958309 -.00000008  00000+0  00000+0 0  9997
2 43706  54.2819 221.3484 0008406 276.4013  83.5169  1.86232051 30133
BEIDOU-3 M18 (C37)      
1 43707U 18093B   23115.09675083 -.00000012  00000+0  00000+0 0  9994
2 43707  54.2834 221.3246 0006376 312.2782  51.5925  1.86229734 30132
BEIDOU-3 IGSO-1 (C38)   
1 44204U 19023A   23114.73104859 -.00000226  00000+0  00000+0 0  9996
2 44204  57.0258  49.6457 0018980 207.6491 337.7278  1.00268889 14838
BEIDOU-2 G8 (C01)       
1 44231U 19027A   23115.63297103 -.00000249  00000+0  00000+0 0  9990
2 44231   1.6293  81.0073 0004255 133.7750  11.0344  1.00270936 14554
BEIDOU-3 IGSO-2 (C39)   
1 44337U 19035A   23115.55428931 -.00000111  00000+0  00000+0 0  9990
2 44337  55.1370 168.9517 0030519 200.1755 162.5625  1.00262043 14188
BEIDOU-3 M24 (C46)      
1 44542U 19061A   23114.62665439 -.00000007  00000+0  00000+0 0  9994
2 44542  54.5088 221.5542 0007251 349.1740  10.8237  1.86231224 24382
BEIDOU-3 M23 (C45)      
1 44543U 19061B   23114.93337605 -.00000010  00000+0  00000+0 0  9994
2 44543  54.5075 221.5127 0004364 342.4992 134.8508  1.86231615 24387
BEIDOU-3 IGSO-3 (C40)   
1 44709U 19073A   23114.89285654 -.00000176  00000+0  00000+0 0  9995
2 44709  56.7562 293.1330 0030214 176.9572 183.1235  1.00267981 12926
BEIDOU-3 M22 (C44)      
1 44793U 19078A   23114.22929438 -.00000103  00000+0  10000-3 0  9990
2 44793  54.8335 339.9029 0007446  20.4009 177.1612  1.86232132 23231
BEIDOU-3 M21 (C43)      
1 44794U 19078B   23113.24294311 -.00000104  00000+0  00000+0 0  9993
2 44794  54.8079 339.9219 0005211  17.0010 151.4806  1.86232627 23217
BEIDOU-3 M19 (C41)      
1 44864U 19090A   23114.57201765  .00000007  00000+0  00000+0 0  9994
2 44864  55.6132 101.1044 0019646 276.3801 257.2581  1.86231785 22829
BEIDOU-3 M20 (C42)      
1 44865U 19090B   23113.86374796  .00000002  00000+0  00000+0 0  9996
2 44865  55.6149 101.1606 0017712 288.4087 220.1833  1.86231758 22788
BEIDOU-3 G2 (C60)       
1 45344U 20017A   23115.54679314 -.00000144  00000+0  00000+0 0  9999
2 45344   1.9990   9.0961 0002051  67.1470  53.9388  1.00272191 11740
BEIDOU-3 G3 (C61)       
1 45807U 20040A   23115.60813111 -.00000358  00000+0  00000+0 0  9998
2 45807   0.7939 322.6928 0006585 327.8326 252.2800  1.00276874 10556
